ATLAS 5 CENTAUR R/B     
1 66455U 25261B   25330.76889782 -.00000052  00000+0  00000+0 0  9996
2 66455   6.1673 293.2138 2329931 183.2713 340.9993  2.28258333   286
STARLINK-35643          
1 66456U 25262A   25334.16671295 -.02072088  00000+0 -15581-1 0  9997
2 66456  42.9993 145.2302 0001268 263.5207 144.7877 15.74685402  3614
STARLINK-35466          
1 66457U 25262B   25334.16671295 -.02071749  00000+0 -15577-1 0  9996
2 66457  42.9992 145.2202 0001343 270.8955 141.2487 15.74685257  3615
STARLINK-35684          
1 66458U 25262C   25334.16671295 -.02080807  00000+0 -15649-1 0  9992
2 66458  42.9992 145.2251 0001769 274.6296 135.5991 15.74688743  3611
STARLINK-35449          
1 66459U 25262D   25334.16671295 -.02081262  00000+0 -15652-1 0  9993
2 66459  42.9993 145.2151 0001494 276.4010 137.6553 15.74693951  3615
STARLINK-35424          
1 66460U 25262E   25334.16671295 -.02071661  00000+0 -15576-1 0  9992
2 66460  42.9992 145.2106 0001920 279.2591 136.7280 15.74678946  3619
STARLINK-35132          
1 66461U 25262F   25334.16671295 -.02121198  00000+0 -15981-1 0  9994
2 66461  42.9991 145.2059 0001610 273.7542 144.1427 15.74712920  3614
STARLINK-35499          
1 66462U 25262G   25334.16671295 -.02105500  00000+0 -15854-1 0  9993
2 66462  42.9992 145.2006 0001778 273.8291 145.9905 15.74699839  3618
STARLINK-35463          
1 66463U 25262H   25334.16671295 -.02098510  00000+0 -15798-1 0  9993
2 66463  42.9993 145.1905 0001425 278.3007 145.3525 15.74696940  3613
STARLINK-35435          
1 66464U 25262J   25334.16671295 -.02107435  00000+0 -15869-1 0  9990
2 66464  42.9992 145.1958 0001761 272.8133 148.9220 15.74701959  3611
STARLINK-35448          
1 66465U 25262K   25334.16671295 -.02090672  00000+0 -15737-1 0  9999
2 66465  42.9991 145.1810 0001572 277.8674 149.6301 15.74686689  3613
STARLINK-35388          
1 66466U 25262L   25334.16671295 -.02072295  00000+0 -15585-1 0  9992
2 66466  42.9990 145.1757 0001461 277.7827 151.6247 15.74680251  3610
